[{"OBJECT_NAME":"STARLINK-35144","OBJECT_ID":"2025-200U","EPOCH":"2026-03-09T17:14:37.836672","MEAN_MOTION":15.05654471,"ECCENTRICITY":0.00010828,"INCLINATION":97.6002,"RA_OF_ASC_NODE":139.7984,"ARG_OF_PERICENTER":131.9308,"MEAN_ANOMALY":228.2011,"EPHEMERIS_TYPE":0,"CLASSIFICATION_TYPE":"U","NORAD_CAT_ID":65538,"ELEMENT_SET_NO":999,"REV_AT_EPOCH":2913,"BSTAR":5.3980827e-5,"MEAN_MOTION_DOT":7.18e-6,"MEAN_MOTION_DDOT":0},{"OBJECT_NAME":"COSMOS 2251 DEB","OBJECT_ID":"1993-036BC","EPOCH":"2026-03-09T15:03:07.178688","MEAN_MOTION":15.0931248,"ECCENTRICITY":0.0027782,"INCLINATION":73.8339,"RA_OF_ASC_NODE":121.9492,"ARG_OF_PERICENTER":197.5511,"MEAN_ANOMALY":285.2146,"EPHEMERIS_TYPE":0,"CLASSIFICATION_TYPE":"U","NORAD_CAT_ID":33811,"ELEMENT_SET_NO":999,"REV_AT_EPOCH":91327,"BSTAR":0.0014101,"MEAN_MOTION_DOT":0.00022722,"MEAN_MOTION_DDOT":0}]
